[
    {
        "Altitude(m)": 612513.947382341,
        "Argument of Periapsis(deg)": 0.0,
        "Eccentricity": 0.0,
        "Inclination(deg)": 60.0,
        "Latitude(deg)": -28.136014292759857,
        "Longitude(deg)": -137.08692803425677,
        "Mean Anomaly(deg)": 212.7273,
        "RAAN(deg)": 125.00000000000001,
        "Satellite Name": "Test1 563",
        "Satellite Number": 563,
        "Semi-Major Axis(m)": 6980739.136638005,
        "Time(s)": 0
    },
    {
        "Altitude(m)": 612708.3157004719,
        "Argument of Periapsis(deg)": 0.00010418945913296404,
        "Eccentricity": 0.0,
        "Inclination(deg)": 60.0,
        "Latitude(deg)": -28.647753951332657,
        "Longitude(deg)": -136.72969841104646,
        "Mean Anomaly(deg)": 213.34740614546186,
        "RAAN(deg)": 124.99957995086027,
        "Satellite Name": "Test1 563",
        "Satellite Number": 563,
        "Semi-Major Axis(m)": 6980739.136638005,
        "Time(s)": 10
    }
]